[{"OBJECT_NAME":"STARLINK-4266","OBJECT_ID":"2022-062AR","EPOCH":"2026-01-30T19:38:35.293920","MEAN_MOTION":15.08842176,"ECCENTRICITY":0.00012615,"INCLINATION":53.2163,"RA_OF_ASC_NODE":184.1319,"ARG_OF_PERICENTER":87.4344,"MEAN_ANOMALY":272.6793,"EPHEMERIS_TYPE":0,"CLASSIFICATION_TYPE":"U","NORAD_CAT_ID":52869,"ELEMENT_SET_NO":999,"REV_AT_EPOCH":20034,"BSTAR":4.5380953e-5,"MEAN_MOTION_DOT":4.34e-6,"MEAN_MOTION_DDOT":0},{"OBJECT_NAME":"STARLINK-4195","OBJECT_ID":"2022-062AS","EPOCH":"2026-01-30T19:13:30.637056","MEAN_MOTION":15.97134893,"ECCENTRICITY":0.00012784,"INCLINATION":53.215,"RA_OF_ASC_NODE":181.1423,"ARG_OF_PERICENTER":140.7072,"MEAN_ANOMALY":219.4051,"EPHEMERIS_TYPE":0,"CLASSIFICATION_TYPE":"U","NORAD_CAT_ID":52870,"ELEMENT_SET_NO":999,"REV_AT_EPOCH":20039,"BSTAR":0.0028377001,"MEAN_MOTION_DOT":0.01252787,"MEAN_MOTION_DDOT":0.00079244248},{"OBJECT_NAME":"STARLINK-4207","OBJECT_ID":"2022-062AT","EPOCH":"2026-01-30T19:22:41.649600","MEAN_MOTION":15.08836204,"ECCENTRICITY":0.00012531,"INCLINATION":53.2168,"RA_OF_ASC_NODE":184.18,"ARG_OF_PERICENTER":84.8027,"MEAN_ANOMALY":275.3108,"EPHEMERIS_TYPE":0,"CLASSIFICATION_TYPE":"U","NORAD_CAT_ID":52871,"ELEMENT_SET_NO":999,"REV_AT_EPOCH":20034,"BSTAR":-7.0827438e-5,"MEAN_MOTION_DOT":-1.415e-5,"MEAN_MOTION_DDOT":0},{"OBJECT_NAME":"STARLINK-4213","OBJECT_ID":"2022-062AU","EPOCH":"2026-01-30T22:40:08.316480","MEAN_MOTION":15.08842387,"ECCENTRICITY":0.00012243,"INCLINATION":53.216,"RA_OF_ASC_NODE":183.5335,"ARG_OF_PERICENTER":68.8512,"MEAN_ANOMALY":291.2611,"EPHEMERIS_TYPE":0,"CLASSIFICATION_TYPE":"U","NORAD_CAT_ID":52872,"ELEMENT_SET_NO":999,"REV_AT_EPOCH":20036,"BSTAR":4.2746112e-5,"MEAN_MOTION_DOT":3.93e-6,"MEAN_MOTION_DDOT":0},{"OBJECT_NAME":"STARLINK-4211","OBJECT_ID":"2022-062AV","EPOCH":"2026-01-30T17:36:43.096032","MEAN_MOTION":15.08834414,"ECCENTRICITY":0.0001195,"INCLINATION":53.2164,"RA_OF_ASC_NODE":184.5099,"ARG_OF_PERICENTER":89.4805,"MEAN_ANOMALY":270.6324,"EPHEMERIS_TYPE":0,"CLASSIFICATION_TYPE":"U","NORAD_CAT_ID":52873,"ELEMENT_SET_NO":999,"REV_AT_EPOCH":20033,"BSTAR":3.9862964e-5,"MEAN_MOTION_DOT":3.47e-6,"MEAN_MOTION_DDOT":0},{"OBJECT_NAME":"STARLINK-4193","OBJECT_ID":"2022-062AX","EPOCH":"2026-01-30T19:06:48.820896","MEAN_MOTION":15.08840788,"ECCENTRICITY":0.00013134,"INCLINATION":53.216,"RA_OF_ASC_NODE":184.2292,"ARG_OF_PERICENTER":75.3564,"MEAN_ANOMALY":284.7574,"EPHEMERIS_TYPE":0,"CLASSIFICATION_TYPE":"U","NORAD_CAT_ID":52875,"ELEMENT_SET_NO":999,"REV_AT_EPOCH":20034,"BSTAR":0.00052012577,"MEAN_MOTION_DOT":8.0e-5,"MEAN_MOTION_DDOT":0},{"OBJECT_NAME":"STARLINK-4200","OBJECT_ID":"2022-062AY","EPOCH":"2026-01-30T19:17:24.065664","MEAN_MOTION":15.0883582,"ECCENTRICITY":0.00017133,"INCLINATION":53.2152,"RA_OF_ASC_NODE":184.1954,"ARG_OF_PERICENTER":89.9817,"MEAN_ANOMALY":270.1372,"EPHEMERIS_TYPE":0,"CLASSIFICATION_TYPE":"U","NORAD_CAT_ID":52876,"ELEMENT_SET_NO":999,"REV_AT_EPOCH":20034,"BSTAR":2.9445721e-5,"MEAN_MOTION_DOT":1.81e-6,"MEAN_MOTION_DDOT":0},{"OBJECT_NAME":"STARLINK-4214","OBJECT_ID":"2022-062AZ","EPOCH":"2026-01-30T16:54:20.208384","MEAN_MOTION":15.08819286,"ECCENTRICITY":0.00016198,"INCLINATION":53.2156,"RA_OF_ASC_NODE":184.6544,"ARG_OF_PERICENTER":82.0088,"MEAN_ANOMALY":278.1088,"EPHEMERIS_TYPE":0,"CLASSIFICATION_TYPE":"U","NORAD_CAT_ID":52877,"ELEMENT_SET_NO":999,"REV_AT_EPOCH":20033,"BSTAR":-0.00081895271,"MEAN_MOTION_DOT":-0.00013291,"MEAN_MOTION_DDOT":0},{"OBJECT_NAME":"STARLINK-4171","OBJECT_ID":"2022-062BA","EPOCH":"2026-01-30T19:01:30.474048","MEAN_MOTION":15.0882868,"ECCENTRICITY":0.00017423,"INCLINATION":53.2167,"RA_OF_ASC_NODE":184.2448,"ARG_OF_PERICENTER":65.04,"MEAN_ANOMALY":295.0773,"EPHEMERIS_TYPE":0,"CLASSIFICATION_TYPE":"U","NORAD_CAT_ID":52878,"ELEMENT_SET_NO":999,"REV_AT_EPOCH":20034,"BSTAR":-5.0607989e-5,"MEAN_MOTION_DOT":-1.093e-5,"MEAN_MOTION_DDOT":0},{"OBJECT_NAME":"STARLINK-4139","OBJECT_ID":"2022-062BB","EPOCH":"2026-01-30T19:49:11.074368","MEAN_MOTION":15.0884015,"ECCENTRICITY":5.014e-5,"INCLINATION":53.2165,"RA_OF_ASC_NODE":184.0988,"ARG_OF_PERICENTER":86.4855,"MEAN_ANOMALY":273.6195,"EPHEMERIS_TYPE":0,"CLASSIFICATION_TYPE":"U","NORAD_CAT_ID":52879,"ELEMENT_SET_NO":999,"REV_AT_EPOCH":20035,"BSTAR":6.3114725e-5,"MEAN_MOTION_DOT":7.17e-6,"MEAN_MOTION_DDOT":0},{"OBJECT_NAME":"STARLINK-4186","OBJECT_ID":"2022-062BC","EPOCH":"2026-01-30T19:54:29.148192","MEAN_MOTION":15.08835535,"ECCENTRICITY":0.00012664,"INCLINATION":53.217,"RA_OF_ASC_NODE":184.0845,"ARG_OF_PERICENTER":84.9456,"MEAN_ANOMALY":275.1681,"EPHEMERIS_TYPE":0,"CLASSIFICATION_TYPE":"U","NORAD_CAT_ID":52880,"ELEMENT_SET_NO":999,"REV_AT_EPOCH":20035,"BSTAR":-9.006414e-6,"MEAN_MOTION_DOT":-4.31e-6,"MEAN_MOTION_DDOT":0},{"OBJECT_NAME":"STARLINK-4181","OBJECT_ID":"2022-062BE","EPOCH":"2026-01-30T17:10:11.638272","MEAN_MOTION":15.08800145,"ECCENTRICITY":9.795e-5,"INCLINATION":53.2154,"RA_OF_ASC_NODE":184.171,"ARG_OF_PERICENTER":84.7314,"MEAN_ANOMALY":275.379,"EPHEMERIS_TYPE":0,"CLASSIFICATION_TYPE":"U","NORAD_CAT_ID":52882,"ELEMENT_SET_NO":999,"REV_AT_EPOCH":20034,"BSTAR":-0.0002605372,"MEAN_MOTION_DOT":-4.427e-5,"MEAN_MOTION_DDOT":0},{"OBJECT_NAME":"STARLINK-4260","OBJECT_ID":"2022-076A","EPOCH":"2026-01-30T22:54:39.893760","MEAN_MOTION":15.08835952,"ECCENTRICITY":0.0001308,"INCLINATION":53.2168,"RA_OF_ASC_NODE":263.5214,"ARG_OF_PERICENTER":91.9911,"MEAN_ANOMALY":268.1231,"EPHEMERIS_TYPE":0,"CLASSIFICATION_TYPE":"U","NORAD_CAT_ID":52986,"ELEMENT_SET_NO":999,"REV_AT_EPOCH":19714,"BSTAR":3.9539683e-5,"MEAN_MOTION_DOT":3.41e-6,"MEAN_MOTION_DDOT":0},{"OBJECT_NAME":"STARLINK-4259","OBJECT_ID":"2022-076B","EPOCH":"2026-01-30T22:16:15.254112","MEAN_MOTION":15.08838816,"ECCENTRICITY":0.00011194,"INCLINATION":53.2167,"RA_OF_ASC_NODE":273.6422,"ARG_OF_PERICENTER":82.6593,"MEAN_ANOMALY":277.4526,"EPHEMERIS_TYPE":0,"CLASSIFICATION_TYPE":"U","NORAD_CAT_ID":52987,"ELEMENT_SET_NO":999,"REV_AT_EPOCH":19700,"BSTAR":1.0109773e-5,"MEAN_MOTION_DOT":-1.27e-6,"MEAN_MOTION_DDOT":0},{"OBJECT_NAME":"STARLINK-4291","OBJECT_ID":"2022-076C","EPOCH":"2026-01-30T22:49:23.649888","MEAN_MOTION":15.0883916,"ECCENTRICITY":0.00014288,"INCLINATION":53.2151,"RA_OF_ASC_NODE":263.5389,"ARG_OF_PERICENTER":89.5124,"MEAN_ANOMALY":270.6032,"EPHEMERIS_TYPE":0,"CLASSIFICATION_TYPE":"U","NORAD_CAT_ID":52988,"ELEMENT_SET_NO":999,"REV_AT_EPOCH":19714,"BSTAR":0.00033766234,"MEAN_MOTION_DOT":5.09e-5,"MEAN_MOTION_DDOT":0},{"OBJECT_NAME":"STARLINK-4293","OBJECT_ID":"2022-076D","EPOCH":"2026-01-30T22:10:56.361216","MEAN_MOTION":15.08835765,"ECCENTRICITY":0.00010546,"INCLINATION":53.2172,"RA_OF_ASC_NODE":273.6573,"ARG_OF_PERICENTER":95.12,"MEAN_ANOMALY":264.9912,"EPHEMERIS_TYPE":0,"CLASSIFICATION_TYPE":"U","NORAD_CAT_ID":52989,"ELEMENT_SET_NO":999,"REV_AT_EPOCH":19700,"BSTAR":0.00017107703,"MEAN_MOTION_DOT":2.436e-5,"MEAN_MOTION_DDOT":0}]
