STARLINK-4266           
1 52869U 22062AR  26030.81846405  .00000434  00000+0  45381-4 0  9994
2 52869  53.2163 184.1319 0001261  87.4344 272.6793 15.08842176200346
STARLINK-4195           
1 52870U 22062AS  26030.80104904  .01252787  79244-3  28377-2 0  9991
2 52870  53.2150 181.1423 0001278 140.7072 219.4051 15.97134893200395
STARLINK-4207           
1 52871U 22062AT  26030.80742650 -.00001415  00000+0 -70827-4 0  9998
2 52871  53.2168 184.1800 0001253  84.8027 275.3108 15.08836204200344
STARLINK-4213           
1 52872U 22062AU  26030.94454070  .00000393  00000+0  42746-4 0  9991
2 52872  53.2160 183.5335 0001224  68.8512 291.2611 15.08842387200369
STARLINK-4211           
1 52873U 22062AV  26030.73383213  .00000347  00000+0  39863-4 0  9994
2 52873  53.2164 184.5099 0001195  89.4805 270.6324 15.08834414200334
STARLINK-4193           
1 52875U 22062AX  26030.79639839  .00008000  00000+0  52013-3 0  9995
2 52875  53.2160 184.2292 0001313  75.3564 284.7574 15.08840788200347
STARLINK-4200           
1 52876U 22062AY  26030.80375076  .00000181  00000+0  29446-4 0  9995
2 52876  53.2152 184.1954 0001713  89.9817 270.1372 15.08835820200345
STARLINK-4214           
1 52877U 22062AZ  26030.70440056 -.00013291  00000+0 -81895-3 0  9999
2 52877  53.2156 184.6544 0001619  82.0088 278.1088 15.08819286200338
STARLINK-4171           
1 52878U 22062BA  26030.79271382 -.00001093  00000+0 -50608-4 0  9999
2 52878  53.2167 184.2448 0001742  65.0400 295.0773 15.08828680200344
STARLINK-4139           
1 52879U 22062BB  26030.82582262  .00000717  00000+0  63115-4 0  9993
2 52879  53.2165 184.0988 0000501  86.4855 273.6195 15.08840150200350
STARLINK-4186           
1 52880U 22062BC  26030.82950403 -.00000431  00000+0 -90064-5 0  9990
2 52880  53.2170 184.0845 0001266  84.9456 275.1681 15.08835535200357
STARLINK-4181           
1 52882U 22062BE  26030.71541248 -.00004427  00000+0 -26054-3 0  9998
2 52882  53.2154 184.1710 0000979  84.7314 275.3790 15.08800145200345
STARLINK-4260           
1 52986U 22076A   26030.95462840  .00000341  00000+0  39540-4 0  9998
2 52986  53.2168 263.5214 0001308  91.9911 268.1231 15.08835952197143
STARLINK-4259           
1 52987U 22076B   26030.92795433 -.00000127  00000+0  10110-4 0  9998
2 52987  53.2167 273.6422 0001119  82.6593 277.4526 15.08838816197006
STARLINK-4291           
1 52988U 22076C   26030.95096817  .00005090  00000+0  33766-3 0  9996
2 52988  53.2151 263.5389 0001428  89.5124 270.6032 15.08839160197144
STARLINK-4293           
1 52989U 22076D   26030.92426344  .00002436  00000+0  17108-3 0  9999
2 52989  53.2172 273.6573 0001054  95.1200 264.9912 15.08835765197003
